ION SCV-004             
1 50993U 22002K   26068.68892644  .00006538  00000+0  23198-3 0  9998
2 50993  97.2961 128.2294 0007216   1.6783 358.4480 15.29369331230088
STARLINK-34047          
1 63821U 25092T   26068.30092785  .00030371  00000+0  11083-2 0  9992
2 63821  42.9956 174.8758 0000910 329.5437  30.5361 15.27591247 48609
